[{"OBJECT_NAME":"LEMUR-2-PETERG","OBJECT_ID":"2017-042S","EPOCH":"2026-03-09T11:34:35.656032","MEAN_MOTION":15.29611459,"ECCENTRICITY":0.00037,"INCLINATION":97.398,"RA_OF_ASC_NODE":253.6596,"ARG_OF_PERICENTER":341.6938,"MEAN_ANOMALY":18.4169,"EPHEMERIS_TYPE":0,"CLASSIFICATION_TYPE":"U","NORAD_CAT_ID":42841,"ELEMENT_SET_NO":999,"REV_AT_EPOCH":47317,"BSTAR":0.00081076471,"MEAN_MOTION_DOT":0.0002324,"MEAN_MOTION_DDOT":0},{"OBJECT_NAME":"STARLINK-36050","OBJECT_ID":"2025-270Q","EPOCH":"2026-03-09T22:59:12.405408","MEAN_MOTION":15.27586635,"ECCENTRICITY":6.285e-5,"INCLINATION":43.0009,"RA_OF_ASC_NODE":54.9482,"ARG_OF_PERICENTER":313.1805,"MEAN_ANOMALY":46.8994,"EPHEMERIS_TYPE":0,"CLASSIFICATION_TYPE":"U","NORAD_CAT_ID":66602,"ELEMENT_SET_NO":999,"REV_AT_EPOCH":1764,"BSTAR":0.00088207967,"MEAN_MOTION_DOT":0.00024095,"MEAN_MOTION_DDOT":0}]
